[Satellite]
VERSION=1.1
NAME=OSCAR 24
NICKNAME=OSCAR 24
TLE1=1 15936U 85066B   15055.06126310  .00000124  00000-0  20708-3 0  9991
TLE2=2 15936  90.0997  34.9414 0171097  53.3749 349.4415 13.35413507440113
